8P/Tuttle,e,54.9125,270.2071,207.4967,5.700405,0.0724178,0.81995725,318.1514,01/28.0/2020,2000,g  9.0,4.0
# From MPEC 2019-JE2
9P/Tempel,e,10.4733,68.7372,179.3041,3.147406,0.1765123,0.50956506,224.6728,01/28.0/2020,2000,g  9.0,4.0
# From MPC114607
10P/Tempel,e,12.0396,117.8080,195.5052,3.060910,0.1840468,0.53840996,282.4566,01/28.0/2020,2000,g  5.0,10.0
# From MPEC 2017-L52
11P/Tempel-Swift-LINEAR,e,14.4248,238.9507,167.8553,3.286007,0.1654632,0.57721002,309.8445,01/28.0/2020,2000,g  9.0,4.0
# From  27, 604
12P/Pons-Brooks,e,74.0635,255.6997,199.0671,17.06422,0.0139822,0.95426240,338.3925,01/28.0/2020,2000,g  5.0,6.0
# From  27, 604
13P/Olbers,e,44.6273,85.8382,64.5902,16.66138,0.0144923,0.92978246,336.5755,01/28.0/2020,2000,g  5.0,6.0
# From MPC100283
14P/Wolf,e,27.9001,202.0915,158.9822,4.259605,0.1121115,0.35645477,88.2341,01/28.0/2020,2000,g  5.5,12.0
# From MPC 92276
15P/Finlay,e,6.7973,13.7209,347.8433,3.503604,0.1502905,0.71688081,279.9488,01/28.0/2020,2000,g 12.0,4.0
# From MPC 92276
16P/Brooks,e,3.0063,138.9555,245.1399,3.660280,0.1407449,0.48786227,297.2565,01/28.0/2020,2000,g  7.5,10.0
# From MPC114607
17P/Holmes,e,19.0228,326.6548,24.5635,3.635770,0.1421705,0.42824320,304.6872,01/28.0/2020,2000,g 10.0,6.0
# From MPC 92984
19P/Borrelly,e,29.6414,74.5891,351.8016,3.600309,0.1442761,0.63983116,253.9738,01/28.0/2020,2000,g  4.5,10.0
# From MPC111773
21P/Giacobini-Zinner,e,32.0045,195.3748,172.8488,3.496436,0.1507529,0.71052018,76.0835,01/28.0/2020,2000,g  9.0,6.0
# From MPC 94283
22P/Kopff,e,4.7415,120.8360,162.9419,3.443562,0.1542383,0.54882813,239.7017,01/28.0/2020,2000,g  3.0,10.4
# From MPC 14747
23P/Brorsen-Metcalf,e,19.1584,312.3189,128.9236,16.95722,0.0141147,0.97092126,0.0000,08/17.0544/1989,2000,g 10.0,6.0
# From MPC110085
24P/Schaumasse,e,11.7241,79.5648,57.7288,4.068408,0.1201067,0.70725242,96.2360,01/28.0/2020,2000,g  6.5,14.0
# From MPC 94674
26P/Grigg-Skjellerup,e,22.4473,211.5353,2.1940,3.013768,0.1883820,0.64077597,91.0365,01/28.0/2020,2000,g 12.0,16.0
# From MPC 78188
27P/Crommelin,e,29.1137,250.5743,196.0135,9.192794,0.0353617,0.91791651,109.9258,01/28.0/2020,2000,g 12.0,8.0
# From MPC114607
28P/Neujmin,e,14.3115,346.3462,347.4383,6.968474,0.0535794,0.77357091,338.0873,01/28.0/2020,2000,g  8.5,6.0
# From MPEC 2019-VB6
29P/Schwassmann-Wachmann,e,9.3671,312.3819,48.0287,6.030757,0.0665497,0.04373698,21.4866,01/28.0/2020,2000,g  4.0,4.0
# From MPC110085
30P/Reinmuth,e,8.3194,119.0331,13.0896,3.745686,0.1359587,0.51230760,120.5310,01/28.0/2020,2000,g  9.5,6.0
# From MPC108597
31P/Schwassmann-Wachmann,e,4.5473,114.1129,18.3198,4.242650,0.1127842,0.19264948,23.2412,01/28.0/2020,2000,g  5.0,8.0
# From MPC 92276
32P/Comas Sola,e,9.9416,57.6387,53.3186,4.498438,0.1033027,0.55688411,199.3659,01/28.0/2020,2000,g  6.5,8.0
# From MPEC 2013-O31
33P/Daniel,e,22.3566,66.3705,20.6447,4.080086,0.1195915,0.45352848,150.6490,01/28.0/2020,2000,g 10.0,12.0
# From  15, 452
35P/Herschel-Rigollet,e,64.525,356.259,29.126,28.5698,0.006454,0.9733520,0.000,12/25.3358/2091,2000,g  9.0,4.0
# From MPC105240
36P/Whipple,e,9.9529,181.8638,200.7612,4.129840,0.1174368,0.26833689,345.3682,01/28.0/2020,2000,g  8.5,6.0
# From MPEC 2018-HA5
37P/Forbes,e,8.9565,314.5692,330.0574,3.458658,0.1532296,0.53417085,97.1128,01/28.0/2020,2000,g 10.5,4.8
# From MPEC 2018-S50
38P/Stephan-Oterma,e,18.3535,77.9973,359.5600,11.26650,0.0260628,0.85903268,11.5477,01/28.0/2020,2000,g  3.5,12.0
# From MPC115887
39P/Oterma,e,1.5611,299.2552,94.8178,7.411169,0.0488511,0.22359987,301.4188,01/28.0/2020,2000,g  7.0,6.0
# From MPC100283
40P/Vaisala,e,11.4716,133.7913,47.4635,4.949843,0.0894987,0.63024891,170.1351,01/28.0/2020,2000,g  5.5,12.0
# From MPC105240
41P/Tuttle-Giacobini-Kresak,e,9.2218,141.0072,62.2577,3.085683,0.1818348,0.66048347,185.5837,01/28.0/2020,2000,g 10.0,16.0
# From MPC 94283
42P/Neujmin,e,3.9881,150.2029,147.1445,4.873067,0.0916222,0.58537616,160.6831,01/28.0/2020,2000,g 13.0,6.0
# From MPC102956
43P/Wolf-Harrington,e,9.4734,244.7055,223.8485,4.298807,0.1105814,0.44236302,137.1438,01/28.0/2020,2000,g  8.0,6.0
# From MPC 89313
44P/Reinmuth,e,5.8982,286.4819,58.1238,3.688993,0.1391049,0.42693166,246.3851,01/28.0/2020,2000,g  8.3,6.0
# From MPC103849
45P/Honda-Mrkos-Pajdusakova,e,4.3262,87.6945,327.9841,3.049251,0.1851033,0.81786531,208.4519,01/28.0/2020,2000,g 13.5,8.0
# From MPC114607
46P/Wirtanen,e,11.7448,82.1534,356.3673,3.091900,0.1812867,0.65851775,74.5299,01/28.0/2020,2000,g 14.0,6.0
# From NK 2718
47P/Ashbrook-Jackson,e,13.0319,356.9352,357.6059,4.125742,0.1176118,0.31768307,113.1175,01/28.0/2020,2000,g  9.0,4.0
# From MPEC 2015-M77
48P/Johnson,e,12.2078,110.1271,216.6049,3.500084,0.1505173,0.42725853,80.3238,01/28.0/2020,2000,g  9.0,4.0
# From MPEC 2015-M77
49P/Arend-Rigaux,e,19.0448,118.8026,332.9568,3.569610,0.1461413,0.59897285,82.0823,01/28.0/2020,2000,g  9.0,4.0
# From MPEC 2015-S97
50P/Arend,e,19.0962,355.1537,49.3669,4.089687,0.1191705,0.52847283,173.0344,01/28.0/2020,2000,g  9.5,6.0
# From NK 3013
51P-A/Harrington,e,5.4254,83.6769,269.2325,3.708742,0.1379953,0.54277438,225.0086,01/28.0/2020,2000,g 16.0,8.0
# From NK 3014
51P-A/Harrington,e,5.4247,83.6925,269.1932,3.709767,0.1379381,0.54284614,224.7636,01/28.0/2020,2000,g 10.0,8.0
# From NK 3014
51P-A/Harrington,e,5.4247,83.6925,269.1932,3.709748,0.1379391,0.54284306,224.7666,01/28.0/2020,2000,g 10.0,8.0
# From MPEC 2015-L08
51P-D/Harrington,e,5.4262,83.6824,269.1826,3.708832,0.1379902,0.54278850,225.0048,01/28.0/2020,2000,g 16.0,8.0
# From MPEC 2015-L08
51P-D/Harrington,e,5.4262,83.6814,269.1834,3.708820,0.1379909,0.54278909,225.0098,01/28.0/2020,2000,g 16.0,8.0
# From NK 3013
51P-D/Harrington,e,5.4254,83.6772,269.2322,3.708741,0.1379953,0.54277457,225.0088,01/28.0/2020,2000,g 16.0,8.0
# From NK 3013
51P-D/Harrington,e,5.4254,83.6772,269.2322,3.708741,0.1379953,0.54277470,225.0088,01/28.0/2020,2000,g 16.0,8.0
# From MPC 88330
52P/Harrington-Abell,e,10.2310,336.8378,139.6019,3.861936,0.1298663,0.53962901,279.9545,01/28.0/2020,2000,g 13.5,6.0
# From MPC100283
53P/Van Biesbroeck,e,6.6075,148.8493,134.3650,5.423499,0.0780342,0.55233162,106.6893,01/28.0/2020,2000,g  7.7,4.8
# From MPC 89011
54P/de Vico-Swift-NEAT,e,6.0601,358.8180,1.7690,3.793815,0.1333798,0.42518046,135.6994,01/28.0/2020,2000,g  9.0,4.0
# From MPC 31070
55P/Tempel-Tuttle,e,162.3642,235.4043,172.5544,10.34616,0.0296166,0.90682341,237.7325,01/28.0/2020,2000,g  9.0,4.0
# From MPC101100
56P/Slaughter-Burnham,e,8.1556,345.9769,44.0489,5.073261,0.0862528,0.50656073,111.1678,01/28.0/2020,2000,g  8.5,6.0
# From MPC 98565
57P/du Toit-Neujmin-Delporte,e,2.8498,188.7819,115.1977,3.447627,0.1539656,0.50065218,263.2414,01/28.0/2020,2000,g 12.5,6.0
# From NK 778
58P/Jackson-Neujmin,e,13.1008,159.0666,200.4597,4.083146,0.1194570,0.66262884,345.8986,01/28.0/2020,2000,g  9.0,4.0
# From MPC111774
59P/Kearns-Kwee,e,9.3411,312.8296,127.6483,4.490798,0.1035664,0.47489455,51.6172,01/28.0/2020,2000,g  7.0,6.0
# From MPEC 2015-M77
60P/Tsuchinshan,e,3.6065,267.5824,216.6464,3.513057,0.1496843,0.53763344,61.7729,01/28.0/2020,2000,g  9.0,4.0
# From MPEC 2015-Q71
61P/Shajn-Schaldach,e,5.9990,162.9913,221.9212,3.684271,0.1393724,0.42381897,220.5065,01/28.0/2020,2000,g  6.0,10.0
# From MPC109147
62P/Tsuchinshan,e,9.5685,89.9473,29.7726,3.404743,0.1568836,0.62146509,123.2431,01/28.0/2020,2000,g  8.0,10.0
# From MPC 84320
63P/Wild,e,19.7440,358.0143,169.1648,5.603872,0.0742971,0.64926682,184.7184,01/28.0/2020,2000,g 10.5,6.0
# From MPC111774
64P/Swift-Gehrels,e,8.9500,299.9990,97.1180,4.456011,0.1047815,0.68750045,47.1630,01/28.0/2020,2000,g  9.5,12.0
# From MPC104795
65P/Gunn,e,9.1839,62.0232,213.7451,3.883303,0.1287960,0.24997460,107.2050,01/28.0/2020,2000,g  5.0,6.0
# From MPC109147
66P/du Toit,e,18.6657,21.8831,257.2702,6.060625,0.0660584,0.78698097,40.8765,01/28.0/2020,2000,g  9.0,4.0
# From MPC 89011
67P/Churyumov-Gerasimenko,e,3.9089,37.2141,21.5706,3.450271,0.1537887,0.65372867,261.2161,01/28.0/2020,2000,g 11.0,4.0
# From MPC 75716
68P/Klemola,e,11.1109,175.0822,153.0611,4.948339,0.0895395,0.63748147,7.1594,01/28.0/2020,2000,g 10.0,4.0
# From MPC114607
69P/Taylor,e,22.0330,104.8305,343.5375,3.890437,0.1284418,0.41311983,40.5414,01/28.0/2020,2000,g  9.5,12.0
# From MPC 92276
70P/Kojima,e,6.5982,119.2679,1.8683,3.675004,0.1398999,0.45328746,269.7165,01/28.0/2020,2000,g 11.0,6.0
# From MPC107051
71P/Clark,e,9.4425,59.4415,208.9994,3.138072,0.1773004,0.49424872,166.9307,01/28.0/2020,2000,g  9.8,6.0
# From MPC 89011
72P/Denning-Fujikawa,e,10.9262,26.6914,346.6670,4.311923,0.1100773,0.81787654,223.9906,01/28.0/2020,2000,g 17.5,10.0
# From MPC106348
73P/Schwassmann-Wachmann,e,11.2357,69.6539,199.4297,3.093134,0.1811782,0.68573563,189.6430,01/28.0/2020,2000,g 11.5,6.0
# From MPC106348
73P-T/Schwassmann-Wachmann,e,11.2378,69.6565,199.4112,3.094694,0.1810412,0.68593887,189.5006,01/28.0/2020,2000,g 11.5,6.0
# From MPC102956
74P/Smirnova-Chernykh,e,6.6400,77.0466,89.3920,4.188719,0.1149694,0.15281124,82.3750,01/28.0/2020,2000,g  5.0,6.0
# From MPC118097
76P/West-Kohoutek-Ikemura,e,30.4567,84.1248,0.0200,3.475050,0.1521467,0.53819735,14.2804,01/28.0/2020,2000,g  8.0,12.0
# From MPC100283
77P/Longmore,e,24.3292,14.8041,196.8676,3.619898,0.1431066,0.35263277,193.8685,01/28.0/2020,2000,g  7.0,8.0
# From MPEC 2016-U66
78P/Gehrels,e,6.2485,210.5407,192.6705,3.740517,0.1362406,0.46168659,40.9181,01/28.0/2020,2000,g  9.0,4.0
# From MPC 94675
79P/du Toit-Hartley,e,3.1480,280.5261,281.8254,2.942783,0.1952391,0.61909772,97.9596,01/28.0/2020,2000,g 16.0,4.0
# From MPEC 2014-P41
80P/Peters-Hartley,e,29.9466,259.8221,339.2484,4.024310,0.1220863,0.59921526,232.3802,01/28.0/2020,2000,g  9.0,4.0
# From MPC105241
81P/Wild,e,3.2371,136.1086,41.7231,3.449930,0.1538115,0.53733248,198.0666,01/28.0/2020,2000,g  7.0,6.0
# From MPC 75717
82P/Gehrels,e,1.1284,239.3137,226.9681,4.137881,0.1170946,0.12186877,67.9108,01/28.0/2020,2000,g  5.0,8.0
# From MPC105241
